id;name;state_id;state_code;state_name;country_id;country_code;country_name;latitude;longitude;wikiDataId
130185;Cho Dok;3794;44;An Giang;240;VN;Vietnam;1.070.000.000;10.511.667.000;Q373214
130211;Huyện An Phú;3794;44;An Giang;240;VN;Vietnam;1.084.274.000;10.508.990.000;Q2414515
130248;Huyện Châu Phú;3794;44;An Giang;240;VN;Vietnam;1.057.166.000;10.516.991.000;Q2232482
130262;Huyện Chợ Mới;3794;44;An Giang;240;VN;Vietnam;1.047.730.000;10.549.092.000;Q1927073
130401;Huyện Phú Tân;3794;44;An Giang;240;VN;Vietnam;1.065.716.000;10.528.459.000;Q1319796
130461;Huyện Tri Tôn;3794;44;An Giang;240;VN;Vietnam;1.041.416.000;10.496.136.000;Q1320227
130569;Long Xuyên;3794;44;An Giang;240;VN;Vietnam;1.038.639.000;10.543.518.000;Q31942265
130570;Long Xuyên City;3794;44;An Giang;240;VN;Vietnam;1.036.857.000;10.542.340.000;Q33421
130189;Côn Sơn;3770;43;Bà Rịa-Vũng Tàu;240;VN;Vietnam;868.641.000;10.660.824.000;Q25262
130255;Huyện Châu Đức;3770;43;Bà Rịa-Vũng Tàu;240;VN;Vietnam;1.065.805.000;10.725.098.000;Q1319826
130539;Huyện Đất Đỏ;3770;43;Bà Rịa-Vũng Tàu;240;VN;Vietnam;1.048.025.000;10.727.879.000;Q2414015
130487;Huyện Tân Thành;3770;43;Bà Rịa-Vũng Tàu;240;VN;Vietnam;1.057.381.000;10.710.189.000;Q3711512
130510;Huyện Xuyên Mộc;3770;43;Bà Rịa-Vũng Tàu;240;VN;Vietnam;1.063.048.000;10.746.568.000;Q1758257
130604;Thành Phố Vũng Tàu;3770;43;Bà Rịa-Vũng Tàu;240;VN;Vietnam;1.040.239.000;10.714.239.000;Q21194
130613;Thị Xã Phú Mỹ;3770;43;Bà Rịa-Vũng Tàu;240;VN;Vietnam;1.056.815.000;10.712.999.000;Q1320204
130626;Vũng Tàu;3770;43;Bà Rịa-Vũng Tàu;240;VN;Vietnam;1.034.599.000;10.708.426.000;Q36088
130177;Bắc Giang;3815;54;Bắc Giang;240;VN;Vietnam;2.127.307.000;10.619.460.000;Q36736
130353;Huyện Lục Nam;3815;54;Bắc Giang;240;VN;Vietnam;2.127.548.000;10.646.519.000;Q1924548
130354;Huyện Lục Ngạn;3815;54;Bắc Giang;240;VN;Vietnam;2.143.719.000;10.665.845.000;Q2226906
130521;Huyện Yên Thế;3815;54;Bắc Giang;240;VN;Vietnam;2.151.667.000;10.611.689.000;Q1924620
130178;Bắc Kạn;3822;53;Bắc Kạn;240;VN;Vietnam;2.214.701.000;10.583.481.000;Q75700
130213;Huyện Ba Bể;3822;53;Bắc Kạn;240;VN;Vietnam;2.241.667.000;10.575.000.000;Q1124233
130228;Huyện Bạch Thông;3822;53;Bắc Kạn;240;VN;Vietnam;2.225.758.000;10.583.295.000;Q3710674
130263;Huyện Chợ Đồn;3822;53;Bắc Kạn;240;VN;Vietnam;2.218.681.000;10.557.280.000;Q800052
130374;Huyện Na Rì;3822;53;Bắc Kạn;240;VN;Vietnam;2.217.883.000;10.611.221.000;Q3711221
130387;Huyện Ngân Sơn;3822;53;Bắc Kạn;240;VN;Vietnam;2.242.962.000;10.601.030.000;Q3711242
130608;Thị Xã Bắc Kạn;3822;53;Bắc Kạn;240;VN;Vietnam;2.214.130.000;10.583.867.000;Q26581
130175;Bạc Liêu;3804;55;Bạc Liêu;240;VN;Vietnam;929.414.000;10.572.776.000;Q36142
130289;Huyện Giá Rai;3804;55;Bạc Liêu;240;VN;Vietnam;927.162.000;10.540.017.000;Q3031261
130318;Huyện Hồng Dân;3804;55;Bạc Liêu;240;VN;Vietnam;953.822.000;10.542.242.000;Q5942590
130179;Bắc Ninh;3791;56;Bắc Ninh;240;VN;Vietnam;2.118.608.000;10.607.631.000;Q33381
130186;Cung Kiệm;3791;56;Bắc Ninh;240;VN;Vietnam;2.118.697.000;10.616.076.000;Q373214
130285;Huyện Gia Bình;3791;56;Bắc Ninh;240;VN;Vietnam;2.107.795.000;10.620.903.000;Q3031197
130441;Huyện Thuận Thành;3791;56;Bắc Ninh;240;VN;Vietnam;2.104.085.000;10.607.515.000;Q3711534
130455;Huyện Tiên Du;3791;56;Bắc Ninh;240;VN;Vietnam;2.112.195.000;10.603.995.000;Q3711538
130518;Huyện Yên Phong;3791;56;Bắc Ninh;240;VN;Vietnam;2.120.676.000;10.599.427.000;Q800053
130635;Ấp Tân Ngãi;3796;50;Bến Tre;240;VN;Vietnam;1.023.333.000;10.628.333.000;Q33343
130180;Bến Tre;3796;50;Bến Tre;240;VN;Vietnam;1.024.147.000;10.637.585.000;Q36635
130215;Huyện Ba Tri;3796;50;Bến Tre;240;VN;Vietnam;1.006.627.000;10.660.554.000;Q3710671
130226;Huyện Bình Đại;3796;50;Bến Tre;240;VN;Vietnam;1.019.354.000;10.664.455.000;Q3710726
130250;Huyện Châu Thành;3796;50;Bến Tre;240;VN;Vietnam;1.029.212.000;10.630.827.000;Q3710806
130261;Huyện Chợ Lách;3796;50;Bến Tre;240;VN;Vietnam;1.022.674.000;10.617.077.000;Q567923
130291;Huyện Giồng Trôm;3796;50;Bến Tre;240;VN;Vietnam;1.015.909.000;10.647.004.000;Q3710927
130449;Huyện Thạnh Phú;3796;50;Bến Tre;240;VN;Vietnam;992.993.000;10.654.316.000;Q3711530
130198;Dĩ An;3785;57;Bình Dương;240;VN;Vietnam;1.090.682.000;10.676.940.000;Q1320364
130616;Thủ Dầu Một;3785;57;Bình Dương;240;VN;Vietnam;1.098.040.000;10.665.190.000;Q1320204
130209;Huyện An Lão;3830;31;Bình Định;240;VN;Vietnam;1.455.676.000;10.880.100.000;Q724711
130298;Huyện Hoài Nhơn;3830;31;Bình Định;240;VN;Vietnam;1.450.535.000;10.902.315.000;Q3710927
130397;Huyện Phù Mỹ;3830;31;Bình Định;240;VN;Vietnam;1.422.304.000;10.908.611.000;Q724739
130490;Huyện Tây Sơn;3830;31;Bình Định;240;VN;Vietnam;1.394.306.000;10.887.999.000;Q3711512
130476;Huyện Tuy Phước;3830;31;Bình Định;240;VN;Vietnam;1.384.564.000;10.915.275.000;Q286486
130503;Huyện Vĩnh Thạnh;3830;31;Bình Định;240;VN;Vietnam;1.421.100.000;10.874.389.000;Q7932536
130584;Qui Nhon;3830;31;Bình Định;240;VN;Vietnam;1.377.648.000;10.922.367.000;Q36081
130174;Bình Long;3797;58;Bình Phước;240;VN;Vietnam;1.164.711.000;10.660.586.000;Q33469
130197;Don Luan;3797;58;Bình Phước;240;VN;Vietnam;1.153.495.000;10.688.324.000;Q36027
130227;Huyện Bù Đốp;3797;58;Bình Phước;240;VN;Vietnam;1.200.374.000;10.681.545.000;Q3710726
130256;Huyện Chơn Thành;3797;58;Bình Phước;240;VN;Vietnam;1.146.283.000;10.666.655.000;Q1319826
130547;Huyện Đồng Phú;3797;58;Bình Phước;240;VN;Vietnam;1.150.071.000;10.701.192.000;Q3593897
130319;Huyện Hớn Quản;3797;58;Bình Phước;240;VN;Vietnam;1.159.718.000;10.662.739.000;Q5942590
130614;Thị Xã Phước Long;3797;58;Bình Phước;240;VN;Vietnam;1.181.142.000;10.699.670.000;Q1320204
130233;Huyện Bắc Bình;3787;40;Bình Thuận;240;VN;Vietnam;1.127.571.000;10.838.506.000;Q3710674
130304;Huyện Hàm Tân;3787;40;Bình Thuận;240;VN;Vietnam;1.076.856.000;10.764.233.000;Q5643878
130302;Huyện Hàm Thuận Bắc;3787;40;Bình Thuận;240;VN;Vietnam;1.114.703.000;10.808.172.000;Q3710927
130303;Huyện Hàm Thuận Nam;3787;40;Bình Thuận;240;VN;Vietnam;1.092.101.000;10.793.325.000;Q3710927
130479;Huyện Tánh Linh;3787;40;Bình Thuận;240;VN;Vietnam;1.111.367.000;10.768.427.000;Q2232329
130475;Huyện Tuy Phong;3787;40;Bình Thuận;240;VN;Vietnam;1.134.746.000;10.870.466.000;Q286486
130567;La Gi;3787;40;Bình Thuận;240;VN;Vietnam;1.065.993.000;10.777.206.000;Q6462754
130579;Phan Thiết;3787;40;Bình Thuận;240;VN;Vietnam;1.092.889.000;10.810.208.000;Q19013
130601;Thành Phố Phan Thiết;3787;40;Bình Thuận;240;VN;Vietnam;1.093.700.000;10.815.778.000;Q25315
130187;Cà Mau;3778;59;Cà Mau;240;VN;Vietnam;917.682.000;10.515.242.000;Q25262
130267;Huyện Cái Nước;3778;59;Cà Mau;240;VN;Vietnam;900.094.000;10.504.201.000;Q800052
130540;Huyện Đầm Dơi;3778;59;Cà Mau;240;VN;Vietnam;896.029.000;10.524.107.000;Q3593897
130204;Huyen Nam Can;3778;59;Cà Mau;240;VN;Vietnam;881.531.000;10.505.574.000;Q724711
130453;Huyện Thới Bình;3778;59;Cà Mau;240;VN;Vietnam;935.790.000;10.516.023.000;Q7786654
148322;Cần Thơ;4925;CT;Cần Thơ;240;VN;Vietnam;1.011.667.000;10.550.000.000;Q216075
148323;Cờ Đỏ;4925;CT;Cần Thơ;240;VN;Vietnam;1.009.472.222;10.543.194.444;Q10752716
148324;Thới Lai;4925;CT;Cần Thơ;240;VN;Vietnam;1.006.305.556;10.556.083.333;Q10826644
148325;Vĩnh Thạnh;4925;CT;Cần Thơ;240;VN;Vietnam;1.021.916.667;10.540.111.111;Q10833701
130183;Cao Bằng;3782;4;Cao Bằng;240;VN;Vietnam;2.266.568.000;10.625.786.000;Q1034096
130229;Huyện Bảo Lac;3782;4;Cao Bằng;240;VN;Vietnam;2.290.085.000;10.573.332.000;Q3710674
130231;Huyện Bảo Lâm;3782;4;Cao Bằng;240;VN;Vietnam;2.287.041.000;10.548.780.000;Q3710674
130313;Huyện Hạ Lang;3782;4;Cao Bằng;240;VN;Vietnam;2.270.933.000;10.667.657.000;Q5942590
130300;Huyện Hà Quảng;3782;4;Cao Bằng;240;VN;Vietnam;2.290.763.000;10.612.487.000;Q3710927
130386;Huyện Nguyên Bình;3782;4;Cao Bằng;240;VN;Vietnam;2.262.400.000;10.593.248.000;Q3031601
130206;Huyen Phuc Hoa;3782;4;Cao Bằng;240;VN;Vietnam;2.253.840.000;10.651.039.000;Q724711
130446;Huyện Thạch An;3782;4;Cao Bằng;240;VN;Vietnam;2.247.654.000;10.634.237.000;Q3711534
130444;Huyện Thông Nông;3782;4;Cao Bằng;240;VN;Vietnam;2.280.735.000;10.595.846.000;Q3711534
130466;Huyện Trà Lĩnh;3782;4;Cao Bằng;240;VN;Vietnam;2.280.961.000;10.632.543.000;Q7831038
130469;Huyện Trùng Khánh;3782;4;Cao Bằng;240;VN;Vietnam;2.283.333.000;10.656.074.000;Q7831038
130195;Da Nang;3806;DN;Đà Nẵng;240;VN;Vietnam;1.606.778.000;10.822.083.000;Q55963184
130173;Buôn Ma Thuột;3829;33;Đắk Lắk;240;VN;Vietnam;1.266.747.000;10.803.775.000;Q33469
130217;Huyện Buôn Đôn;3829;33;Đắk Lắk;240;VN;Vietnam;1.290.396.000;10.773.870.000;Q3710671
130283;Huyện Ea H'Leo;3829;33;Đắk Lắk;240;VN;Vietnam;1.331.814.000;10.807.148.000;Q3031197
130284;Huyện Ea Súp;3829;33;Đắk Lắk;240;VN;Vietnam;1.318.279.000;10.779.954.000;Q3031197
130269;Huyện Cư Jút;3823;72;Đắk Nông;240;VN;Vietnam;1.269.591.000;10.776.316.000;Q800052
130544;Huyện Đắk R’Lấp;3823;72;Đắk Nông;240;VN;Vietnam;1.187.990.000;10.752.244.000;Q3593897
130333;Huyện Krông Nô;3823;72;Đắk Nông;240;VN;Vietnam;1.236.285.000;10.783.445.000;Q6405298
130196;Dien Bien Phu;3773;71;Điện Biên;240;VN;Vietnam;2.138.602.000;10.302.301.000;Q36027
130528;Huyện Điện Biên Đông;3773;71;Điện Biên;240;VN;Vietnam;2.125.266.000;10.326.900.000;Q5295738
130365;Huyện Mường Nhé;3773;71;Điện Biên;240;VN;Vietnam;2.210.353.000;10.258.465.000;Q10796264
130493;Huyện Tủa Chùa;3773;71;Điện Biên;240;VN;Vietnam;2.195.357.000;10.337.332.000;Q7484836
130478;Huyện Tuần Giáo;3773;71;Điện Biên;240;VN;Vietnam;2.169.481.000;10.341.758.000;Q2232329
130611;Thị Xã Mưòng Lay;3773;71;Điện Biên;240;VN;Vietnam;2.203.374.000;10.312.331.000;Q3031171
130172;Biên Hòa;3821;39;Đồng Nai;240;VN;Vietnam;1.094.469.000;10.682.432.000;Q19316
130546;Huyện Định Quán;3821;39;Đồng Nai;240;VN;Vietnam;1.121.866.000;10.733.959.000;Q3593897
130344;Huyện Long Thành;3821;39;Đồng Nai;240;VN;Vietnam;1.076.162.000;10.702.688.000;Q3711115
130485;Huyện Tân Phú;3821;39;Đồng Nai;240;VN;Vietnam;1.139.867.000;10.739.976.000;Q3711512
130452;Huyện Thống Nhất;3821;39;Đồng Nai;240;VN;Vietnam;1.097.764.000;10.715.909.000;Q3711530
130471;Huyện Trảng Bom;3821;39;Đồng Nai;240;VN;Vietnam;1.096.624.000;10.703.614.000;Q7831038
130498;Huyện Vĩnh Cửu;3821;39;Đồng Nai;240;VN;Vietnam;1.125.725.000;10.702.773.000;Q7484836
130184;Cao Lãnh;3769;45;Đồng Tháp;240;VN;Vietnam;1.046.017.000;10.563.294.000;Q35656
130253;Huyện Châu Thành;3769;45;Đồng Tháp;240;VN;Vietnam;1.022.543.000;10.582.380.000;Q3710806
130340;Huyện Lai Vung;3769;45;Đồng Tháp;240;VN;Vietnam;1.024.051.000;10.566.327.000;Q6473680
130351;Huyện Lấp Vò;3769;45;Đồng Tháp;240;VN;Vietnam;1.035.918.000;10.560.611.000;Q1320095
130430;Huyện Tam Nông;3769;45;Đồng Tháp;240;VN;Vietnam;1.072.761.000;10.552.522.000;Q3711485
130483;Huyện Tân Hồng;3769;45;Đồng Tháp;240;VN;Vietnam;1.087.089.000;10.549.104.000;Q3711512
130435;Huyện Thanh Bình;3769;45;Đồng Tháp;240;VN;Vietnam;1.060.137.000;10.547.811.000;Q7710095
130443;Huyện Tháp Mười;3769;45;Đồng Tháp;240;VN;Vietnam;1.054.398.000;10.581.875.000;Q3711534
130589;Sa Dec;3769;45;Đồng Tháp;240;VN;Vietnam;1.029.085.000;10.575.635.000;Q36093
130590;Sa Dec city;3769;45;Đồng Tháp;240;VN;Vietnam;1.030.550.000;10.574.757.000;Q2987563
130607;Thị Trấn Tân Thành;3769;45;Đồng Tháp;240;VN;Vietnam;1.025.616.000;10.559.280.000;Q26581
130258;Huyện Chư Păh;3813;30;Gia Lai;240;VN;Vietnam;1.415.941.000;10.798.411.000;Q1319826
130257;Huyện Chư Prông;3813;30;Gia Lai;240;VN;Vietnam;1.359.976.000;10.781.099.000;Q1319826
130259;Huyện Chư Sê;3813;30;Gia Lai;240;VN;Vietnam;1.374.254.000;10.808.663.000;Q1319826
130549;Huyện Đức Cơ;3813;30;Gia Lai;240;VN;Vietnam;1.378.454.000;10.766.970.000;Q5295775
130320;Huyện Ia Grai;3813;30;Gia Lai;240;VN;Vietnam;1.398.937.000;10.773.740.000;Q5942590
130322;Huyện KBang;3813;30;Gia Lai;240;VN;Vietnam;1.430.506.000;10.849.779.000;Q20025812
130335;Huyện Kông Chro;3813;30;Gia Lai;240;VN;Vietnam;1.373.519.000;10.859.697.000;Q6405298
130334;Huyện Krông Pa;3813;30;Gia Lai;240;VN;Vietnam;1.323.152.000;10.865.494.000;Q6405298
130358;Huyện Mang Yang;3813;30;Gia Lai;240;VN;Vietnam;1.392.840.000;10.830.246.000;Q2226906
130583;Pleiku;3813;30;Gia Lai;240;VN;Vietnam;1.398.333.000;10.800.000.000;Q30599
130555;Hà Giang;3779;3;Hà Giang;240;VN;Vietnam;2.282.333.000;10.498.357.000;Q36519
130235;Huyện Bắc Mê;3779;3;Hà Giang;240;VN;Vietnam;2.275.477.000;10.529.023.000;Q4838559
130236;Huyện Bắc Quang;3779;3;Hà Giang;240;VN;Vietnam;2.242.301.000;10.491.831.000;Q4838559
130548;Huyện Đồng Văn;3779;3;Hà Giang;240;VN;Vietnam;2.325.449.000;10.527.626.000;Q5295775
130406;Huyện Quang Bình;3779;3;Hà Giang;240;VN;Vietnam;2.241.507.000;10.466.018.000;Q3091652
130508;Huyện Vị Xuyên;3779;3;Hà Giang;240;VN;Vietnam;2.273.096.000;10.490.827.000;Q7932536
130511;Huyện Xín Mần;3779;3;Hà Giang;240;VN;Vietnam;2.264.148.000;10.452.089.000;Q1758257
130516;Huyện Yên Minh;3779;3;Hà Giang;240;VN;Vietnam;2.306.992.000;10.517.865.000;Q8052181
130223;Huyện Bình Lục;3802;63;Hà Nam;240;VN;Vietnam;2.050.126.000;10.602.959.000;Q800057
130280;Huyện Duy Tiên;3802;63;Hà Nam;240;VN;Vietnam;2.062.803.000;10.596.193.000;Q3031197
130326;Huyện Kim Bảng;3802;63;Hà Nam;240;VN;Vietnam;2.057.254.000;10.585.043.000;Q20025812
130347;Huyện Lý Nhân;3802;63;Hà Nam;240;VN;Vietnam;2.056.422.000;10.609.455.000;Q3711115
130437;Huyện Thanh Liêm;3802;63;Hà Nam;240;VN;Vietnam;2.046.249.000;10.592.100.000;Q7710095
130582;Phủ Lý;3802;63;Hà Nam;240;VN;Vietnam;2.054.531.000;10.591.221.000;Q35659
130558;Hà Đông;3810;HN;Hà Nội;240;VN;Vietnam;2.097.136.000;10.577.876.000;Q33996
130201;Hanoi;3810;HN;Hà Nội;240;VN;Vietnam;2.102.450.000;10.584.117.000;Q1858
130412;Huyện Quốc Oai;3810;HN;Hà Nội;240;VN;Vietnam;2.097.060.000;10.561.127.000;Q5370368
130586;Quận Ba Đình;3810;HN;Hà Nội;240;VN;Vietnam;2.103.587.000;10.582.163.000;Q890194
130587;Quận Hà Đông;3810;HN;Hà Nội;240;VN;Vietnam;2.095.482.000;10.576.851.000;Q546840
130595;Sơn Tây;3810;HN;Hà Nội;240;VN;Vietnam;2.114.053.000;10.550.686.000;Q1365138
130557;Hà Tĩnh;3816;23;Hà Tĩnh;240;VN;Vietnam;1.834.282.000;10.590.569.000;Q33996
130277;Huyện Cẩm Xuyên;3816;23;Hà Tĩnh;240;VN;Vietnam;1.819.059.000;10.600.186.000;Q3031197
130243;Huyện Can Lộc;3816;23;Hà Tĩnh;240;VN;Vietnam;1.844.414.000;10.576.350.000;Q4838559
130525;Huyện Ðức Thọ;3816;23;Hà Tĩnh;240;VN;Vietnam;1.849.699.000;10.561.016.000;Q5295738
130337;Huyện Kỳ Anh;3816;23;Hà Tĩnh;240;VN;Vietnam;1.805.805.000;10.624.580.000;Q6405298
130382;Huyện Nghi Xuân;3816;23;Hà Tĩnh;240;VN;Vietnam;1.862.419.000;10.576.829.000;Q3031601
130447;Huyện Thạch Hà;3816;23;Hà Tĩnh;240;VN;Vietnam;1.835.091.000;10.581.123.000;Q3711534
130562;Hải Dương;3827;61;Hải Dương;240;VN;Vietnam;2.094.099.000;10.633.302.000;Q36354
130221;Huyện Bình Giang;3827;61;Hải Dương;240;VN;Vietnam;2.087.586.000;10.619.138.000;Q3031078
130274;Huyện Cẩm Giàng;3827;61;Hải Dương;240;VN;Vietnam;2.095.000.000;10.621.667.000;Q3031197
130286;Huyện Gia Lộc;3827;61;Hải Dương;240;VN;Vietnam;2.085.164.000;10.629.130.000;Q3031261
130329;Huyện Kinh Môn;3827;61;Hải Dương;240;VN;Vietnam;2.101.634.000;10.650.384.000;Q3031344
130376;Huyện Nam Sách;3827;61;Hải Dương;240;VN;Vietnam;2.100.484.000;10.634.042.000;Q3031601
130438;Huyện Thanh Miện;3827;61;Hải Dương;240;VN;Vietnam;2.077.953.000;10.622.218.000;Q3031911
130609;Thị Xã Chí Linh;3827;61;Hải Dương;240;VN;Vietnam;2.113.722.000;10.639.638.000;Q3031171
130188;Cát Bà;3783;HP;Hải Phòng;240;VN;Vietnam;2.072.779.000;10.704.819.000;Q25262
130200;Haiphong;3783;HP;Hải Phòng;240;VN;Vietnam;2.086.481.000;10.668.345.000;Q3277075
130254;Huyện Châu Thành A;3777;73;Hậu Giang;240;VN;Vietnam;993.056.000;10.564.194.000;Q3710806
130627;Vị Thanh;3777;73;Hậu Giang;240;VN;Vietnam;978.449.000;10.547.012.000;Q36114
130191;Cần Giờ;3811;SG;Hồ Chí Minh;240;VN;Vietnam;1.041.115.000;10.695.474.000;Q25262
130194;Củ Chi;3811;SG;Hồ Chí Minh;240;VN;Vietnam;1.097.333.000;10.649.325.000;Q55963184
130202;Ho Chi Minh City;3811;SG;Hồ Chí Minh;240;VN;Vietnam;1.082.302.000;10.662.965.000;Q1854
130559;Hòa Bình;3799;14;Hòa Bình;240;VN;Vietnam;2.081.717.000;10.533.759.000;Q130324
130245;Huyện Cao Phong;3799;14;Hòa Bình;240;VN;Vietnam;2.069.532.000;10.533.559.000;Q4838559
130338;Huyện Kỳ Sơn;3799;14;Hòa Bình;240;VN;Vietnam;2.089.631.000;10.539.659.000;Q6405298
130350;Huyện Lạc Thủy;3799;14;Hòa Bình;240;VN;Vietnam;2.049.794.000;10.574.092.000;Q1320095
130349;Huyện Lương Sơn;3799;14;Hòa Bình;240;VN;Vietnam;2.087.650.000;10.551.219.000;Q1320095
130484;Huyện Tân Lạc;3799;14;Hòa Bình;240;VN;Vietnam;2.060.557.000;10.523.399.000;Q3711512
130560;Hưng Yên;3768;66;Hưng Yên;240;VN;Vietnam;2.064.637.000;10.605.112.000;Q36485
130523;Huyện Ân Thi;3768;66;Hưng Yên;240;VN;Vietnam;2.081.086.000;10.609.995.000;Q1924620
130323;Huyện Khoái Châu;3768;66;Hưng Yên;240;VN;Vietnam;2.082.170.000;10.597.455.000;Q20025812
130328;Huyện Kim Động;3768;66;Hưng Yên;240;VN;Vietnam;2.074.645.000;10.603.632.000;Q20025812
130369;Huyện Mỹ Hào;3768;66;Hưng Yên;240;VN;Vietnam;2.093.210.000;10.610.630.000;Q10796264
130396;Huyện Phù Cừ;3768;66;Hưng Yên;240;VN;Vietnam;2.070.997.000;10.619.744.000;Q724739
130456;Huyện Tiên Lữ;3768;66;Hưng Yên;240;VN;Vietnam;2.068.490.000;10.612.513.000;Q3711538
130182;Cam Ranh;3793;34;Khánh Hòa;240;VN;Vietnam;1.192.144.000;10.915.913.000;Q31887770
130278;Huyện Diên Khánh;3793;34;Khánh Hòa;240;VN;Vietnam;1.227.341.000;10.903.890.000;Q3031197
130324;Huyện Khánh Sơn;3793;34;Khánh Hòa;240;VN;Vietnam;1.202.858.000;10.890.814.000;Q20025812
130325;Huyện Khánh Vĩnh;3793;34;Khánh Hòa;240;VN;Vietnam;1.230.593.000;10.883.073.000;Q20025812
130506;Huyện Vạn Ninh;3793;34;Khánh Hòa;240;VN;Vietnam;1.272.344.000;10.924.586.000;Q7932536
130576;Nha Trang;3793;34;Khánh Hòa;240;VN;Vietnam;1.224.507.000;10.919.432.000;Q19491
130598;Thành Phố Cam Ranh;3793;34;Khánh Hòa;240;VN;Vietnam;1.190.707.000;10.914.861.000;Q36175
130600;Thành Phố Nha Trang;3793;34;Khánh Hòa;240;VN;Vietnam;1.225.458.000;10.916.655.000;Q36175
130612;Thị Xã Ninh Hòa;3793;34;Khánh Hòa;240;VN;Vietnam;1.253.796.000;10.906.057.000;Q3031171
130199;Dương Đông;3800;47;Kiên Giang;240;VN;Vietnam;1.021.716.000;10.395.929.000;Q3277075
130556;Hà Tiên;3800;47;Kiên Giang;240;VN;Vietnam;1.038.310.000;10.448.753.000;Q800154
130208;Huyện An Biên;3800;47;Kiên Giang;240;VN;Vietnam;981.291.000;10.505.230.000;Q724711
130210;Huyện An Minh;3800;47;Kiên Giang;240;VN;Vietnam;966.704.000;10.494.848.000;Q724711
130249;Huyện Châu Thành;3800;47;Kiên Giang;240;VN;Vietnam;994.372.000;10.516.868.000;Q2232482
130290;Huyện Giồng Riềng;3800;47;Kiên Giang;240;VN;Vietnam;991.224.000;10.537.311.000;Q3031261
130295;Huyện Gò Quao;3800;47;Kiên Giang;240;VN;Vietnam;974.027.000;10.529.766.000;Q3710927
130307;Huyện Hòn Đất;3800;47;Kiên Giang;240;VN;Vietnam;1.022.908.000;10.495.280.000;Q5874252
130330;Huyện Kiên Hải;3800;47;Kiên Giang;240;VN;Vietnam;983.971.000;10.461.560.000;Q3031344
130400;Huyện Phú Quốc;3800;47;Kiên Giang;240;VN;Vietnam;1.025.516.000;10.401.455.000;Q724739
130481;Huyện Tân Hiệp;3800;47;Kiên Giang;240;VN;Vietnam;1.009.540.000;10.525.936.000;Q3711512
130502;Huyện Vĩnh Thuận;3800;47;Kiên Giang;240;VN;Vietnam;953.306.000;10.524.490.000;Q7932536
130564;Kien Luong Town;3800;47;Kiên Giang;240;VN;Vietnam;1.024.892.000;10.459.000.000;Q36160
130588;Rạch Giá;3800;47;Kiên Giang;240;VN;Vietnam;1.001.245.000;10.508.091.000;Q36093
130542;Huyện Đắk Glei;3772;28;Kon Tum;240;VN;Vietnam;1.511.358.000;10.775.093.000;Q3593897
130543;Huyện Đắk Hà;3772;28;Kon Tum;240;VN;Vietnam;1.460.326.000;10.798.547.000;Q3593897
130545;Huyện Đắk Tô;3772;28;Kon Tum;240;VN;Vietnam;1.470.087.000;10.780.816.000;Q3593897
130321;Huyện Ia H'Drai;3772;28;Kon Tum;240;VN;Vietnam;1.406.032.000;10.746.243.000;Q20025812
130332;Huyện Kon Plông;3772;28;Kon Tum;240;VN;Vietnam;1.475.620.000;10.832.057.000;Q6405298
130388;Huyện Ngọc Hồi;3772;28;Kon Tum;240;VN;Vietnam;1.471.940.000;10.762.636.000;Q3711242
130419;Huyện Sa Thầy;3772;28;Kon Tum;240;VN;Vietnam;1.432.050.000;10.759.862.000;Q7395483
130565;Kon Tum;3772;28;Kon Tum;240;VN;Vietnam;1.435.451.000;10.800.759.000;Q36160
130361;Huyện Mưòng Tè;3825;1;Lai Châu;240;VN;Vietnam;2.237.443.000;10.273.835.000;Q10796264
130431;Huyện Tam Đường;3825;1;Lai Châu;240;VN;Vietnam;2.235.391.000;10.359.342.000;Q3711485
130433;Huyện Than Uyên;3825;1;Lai Châu;240;VN;Vietnam;2.191.424.000;10.382.857.000;Q7710095
130176;Bảo Lộc;3818;35;Lâm Đồng;240;VN;Vietnam;1.154.798.000;10.780.772.000;Q35620
130632;Đam Rong;3818;35;Lâm Đồng;240;VN;Vietnam;1.205.409.000;10.814.941.000;Q33343
130633;Đinh Văn;3818;35;Lâm Đồng;240;VN;Vietnam;1.178.624.000;10.824.282.000;Q33343
130634;Đưc Trọng;3818;35;Lâm Đồng;240;VN;Vietnam;1.173.559.000;10.837.330.000;Q33343
130630;Ðà Lạt;3818;35;Lâm Đồng;240;VN;Vietnam;1.194.646.000;10.844.193.000;Q25281
130230;Huyện Bảo Lâm;3818;35;Lâm Đồng;240;VN;Vietnam;1.171.163.000;10.775.338.000;Q3710674
130536;Huyện Đạ Huoai;3818;35;Lâm Đồng;240;VN;Vietnam;1.142.465.000;10.763.825.000;Q5295738
130537;Huyện Đạ Tẻh;3818;35;Lâm Đồng;240;VN;Vietnam;1.158.446.000;10.752.792.000;Q5295738
130535;Huyện Đơn Dương;3818;35;Lâm Đồng;240;VN;Vietnam;1.175.308.000;10.855.397.000;Q5295738
130553;Huyện Đức Trọng;3818;35;Lâm Đồng;240;VN;Vietnam;1.162.686.000;10.835.330.000;Q5311201
130346;Huyện Lâm Hà;3818;35;Lâm Đồng;240;VN;Vietnam;1.181.890.000;10.821.215.000;Q3711115
130237;Huyện Bắc Sơn;3792;9;Lạng Sơn;240;VN;Vietnam;2.183.801.000;10.627.690.000;Q4838559
130220;Huyện Bình Gia;3792;9;Lạng Sơn;240;VN;Vietnam;2.207.281.000;10.630.410.000;Q3710671
130244;Huyện Cao Lộc;3792;9;Lạng Sơn;240;VN;Vietnam;2.189.857.000;10.685.435.000;Q4838559
130246;Huyện Chi Lăng;3792;9;Lạng Sơn;240;VN;Vietnam;2.167.602.000;10.662.925.000;Q4838559
130531;Huyện Đình Lập;3792;9;Lạng Sơn;240;VN;Vietnam;2.154.210.000;10.712.925.000;Q5295738
130308;Huyện Hũu Lũng;3792;9;Lạng Sơn;240;VN;Vietnam;2.154.474.000;10.634.386.000;Q5874252
130507;Huyện Vặn Quan;3792;9;Lạng Sơn;240;VN;Vietnam;2.183.333.000;10.654.942.000;Q7932536
130572;Lạng Sơn;3792;9;Lạng Sơn;240;VN;Vietnam;2.185.264.000;10.676.101.000;Q33383
130234;Huyện Bắc Hà;3817;2;Lào Cai;240;VN;Vietnam;2.250.998.000;10.430.769.000;Q4838559
130232;Huyện Bảo Yên;3817;2;Lào Cai;240;VN;Vietnam;2.226.109.000;10.446.424.000;Q3710674
130219;Huyện Bát Xát;3817;2;Lào Cai;240;VN;Vietnam;2.256.767.000;10.371.339.000;Q3710671
130362;Huyện Mường Khương;3817;2;Lào Cai;240;VN;Vietnam;2.267.111.000;10.411.772.000;Q10796264
130418;Huyện Sa Pa;3817;2;Lào Cai;240;VN;Vietnam;2.233.769.000;10.384.037.000;Q7395483
130420;Huyện Si Ma Cai;3817;2;Lào Cai;240;VN;Vietnam;2.267.161.000;10.427.326.000;Q7395483
130495;Huyện Văn Bàn;3817;2;Lào Cai;240;VN;Vietnam;2.207.002.000;10.418.122.000;Q7484836
130571;Lào Cai;3817;2;Lào Cai;240;VN;Vietnam;2.248.556.000;10.397.066.000;Q33421
130568;Lao Chải;3817;2;Lào Cai;240;VN;Vietnam;2.231.377.000;10.386.844.000;Q31942265
130591;Sa Pa;3817;2;Lào Cai;240;VN;Vietnam;2.234.023.000;10.384.415.000;Q1000140
130190;Cần Giuộc;3808;41;Long An;240;VN;Vietnam;1.060.857.000;10.667.135.000;Q25262
130240;Huyện Bến Lức;3808;41;Long An;240;VN;Vietnam;1.068.858.000;10.645.484.000;Q4838559
130271;Huyện Cần Đước;3808;41;Long An;240;VN;Vietnam;1.054.148.000;10.659.636.000;Q800052
130270;Huyện Cần Giuộc;3808;41;Long An;240;VN;Vietnam;1.057.742.000;10.667.279.000;Q800052
130251;Huyện Châu Thành;3808;41;Long An;240;VN;Vietnam;1.045.214.000;10.649.015.000;Q3710806
130551;Huyện Đức Hòa;3808;41;Long An;240;VN;Vietnam;1.087.838.000;10.642.422.000;Q5311201
130550;Huyện Đức Huệ;3808;41;Long An;240;VN;Vietnam;1.086.473.000;10.625.914.000;Q5295775
130368;Huyện Mộc Hóa;3808;41;Long An;240;VN;Vietnam;1.075.166.000;10.601.729.000;Q10796264
130482;Huyện Tân Hưng;3808;41;Long An;240;VN;Vietnam;1.083.380.000;10.568.848.000;Q3711512
130488;Huyện Tân Thạnh;3808;41;Long An;240;VN;Vietnam;1.060.351.000;10.596.576.000;Q3711512
130489;Huyện Tân Trụ;3808;41;Long An;240;VN;Vietnam;1.053.182.000;10.651.644.000;Q3711512
130448;Huyện Thạnh Hóa;3808;41;Long An;240;VN;Vietnam;1.066.667.000;10.616.667.000;Q7710339
130454;Huyện Thủ Thừa;3808;41;Long An;240;VN;Vietnam;1.065.639.000;10.634.580.000;Q7786654
130499;Huyện Vĩnh Hưng;3808;41;Long An;240;VN;Vietnam;1.088.299.000;10.580.364.000;Q7484836
130620;Tân An;3808;41;Long An;240;VN;Vietnam;1.053.589.000;10.641.366.000;Q33389
130287;Huyện Giao Thủy;3789;67;Nam Định;240;VN;Vietnam;2.025.706.000;10.646.245.000;Q3031261
130315;Huyện Hải Hậu;3789;67;Nam Định;240;VN;Vietnam;2.015.057.000;10.627.161.000;Q5942590
130370;Huyện Mỹ Lộc;3789;67;Nam Định;240;VN;Vietnam;2.046.079.000;10.612.319.000;Q10796264
130377;Huyện Nam Trực;3789;67;Nam Định;240;VN;Vietnam;2.034.106.000;10.620.821.000;Q3031601
130384;Huyện Nghĩa Hưng;3789;67;Nam Định;240;VN;Vietnam;2.010.598.000;10.617.345.000;Q3031601
130474;Huyện Trực Ninh;3789;67;Nam Định;240;VN;Vietnam;2.025.690.000;10.624.582.000;Q286486
130509;Huyện Vụ Bản;3789;67;Nam Định;240;VN;Vietnam;2.037.705.000;10.609.707.000;Q7932536
130526;Huyện Ý Yên;3789;67;Nam Định;240;VN;Vietnam;2.031.669.000;10.602.327.000;Q5295738
130575;Nam Định;3789;67;Nam Định;240;VN;Vietnam;2.043.389.000;10.617.729.000;Q33682
130212;Huyện Anh Sơn;3780;22;Nghệ An;240;VN;Vietnam;1.892.902.000;10.508.294.000;Q2414515
130264;Huyện Con Cuông;3780;22;Nghệ An;240;VN;Vietnam;1.903.898.000;10.480.353.000;Q800052
130279;Huyện Diễn Châu;3780;22;Nghệ An;240;VN;Vietnam;1.898.892.000;10.557.625.000;Q3031197
130532;Huyện Đô Lương;3780;22;Nghệ An;240;VN;Vietnam;1.889.259.000;10.534.027.000;Q5295738
130310;Huyện Hưng Nguyên;3780;22;Nghệ An;240;VN;Vietnam;1.867.811.000;10.562.523.000;Q5942590
130339;Huyện Kỳ Sơn;3780;22;Nghệ An;240;VN;Vietnam;1.942.397.000;10.422.199.000;Q6405298
130378;Huyện Nam Đàn;3780;22;Nghệ An;240;VN;Vietnam;1.867.041.000;10.552.575.000;Q3031601
130381;Huyện Nghi Lộc;3780;22;Nghệ An;240;VN;Vietnam;1.883.131.000;10.562.411.000;Q3031601
130385;Huyện Nghĩa Đàn;3780;22;Nghệ An;240;VN;Vietnam;1.938.234.000;10.544.072.000;Q3031601
130411;Huyện Quế Phong;3780;22;Nghệ An;240;VN;Vietnam;1.970.177.000;10.487.913.000;Q596473
130413;Huyện Quỳ Châu;3780;22;Nghệ An;240;VN;Vietnam;1.955.707.000;10.509.173.000;Q5370368
130414;Huyện Quỳ Hợp;3780;22;Nghệ An;240;VN;Vietnam;1.932.514.000;10.516.009.000;Q5370368
130415;Huyện Quỳnh Lưu;3780;22;Nghệ An;240;VN;Vietnam;1.922.717.000;10.564.354.000;Q5370368
130436;Huyện Thanh Chương;3780;22;Nghệ An;240;VN;Vietnam;1.873.929.000;10.524.053.000;Q7710095
130492;Huyện Tương Dương;3780;22;Nghệ An;240;VN;Vietnam;1.930.979.000;10.457.788.000;Q3711512
130520;Huyện Yên Thành;3780;22;Nghệ An;240;VN;Vietnam;1.902.724.000;10.543.649.000;Q3711616
130622;Vinh;3780;22;Nghệ An;240;VN;Vietnam;1.867.337.000;10.569.232.000;Q33428
130629;Yên Vinh;3780;22;Nghệ An;240;VN;Vietnam;1.866.667.000;10.566.667.000;Q49371602
130297;Huyện Hoa Lư;3786;18;Ninh Bình;240;VN;Vietnam;2.025.391.000;10.590.789.000;Q3710927
130327;Huyện Kim Sơn;3786;18;Ninh Bình;240;VN;Vietnam;2.006.034.000;10.609.863.000;Q20025812
130390;Huyện Nho Quan;3786;18;Ninh Bình;240;VN;Vietnam;2.027.606.000;10.575.442.000;Q3711242
130513;Huyện Yên Khánh;3786;18;Ninh Bình;240;VN;Vietnam;2.019.017.000;10.609.605.000;Q8052181
130517;Huyện Yên Mô;3786;18;Ninh Bình;240;VN;Vietnam;2.012.984.000;10.600.199.000;Q8052181
130577;Ninh Bình;3786;18;Ninh Bình;240;VN;Vietnam;2.025.809.000;10.597.965.000;Q33929
130578;Phan Rang-Tháp Chàm;3788;36;Ninh Thuận;240;VN;Vietnam;1.156.432.000;10.898.858.000;Q19013
130275;Huyện Cẩm Khê;3801;68;Phú Thọ;240;VN;Vietnam;2.140.683.000;10.509.845.000;Q3031197
130530;Huyện Đoan Hùng;3801;68;Phú Thọ;240;VN;Vietnam;2.161.776.000;10.516.110.000;Q5295738
130312;Huyện Hạ Hòa;3801;68;Phú Thọ;240;VN;Vietnam;2.157.763.000;10.499.464.000;Q5942590
130203;Huyen Lam Thao;3801;68;Phú Thọ;240;VN;Vietnam;2.129.971.000;10.531.119.000;Q1854
130434;Huyện Thanh Ba;3801;68;Phú Thọ;240;VN;Vietnam;2.147.816.000;10.515.881.000;Q7710095
130515;Huyện Yên Lập;3801;68;Phú Thọ;240;VN;Vietnam;2.135.569.000;10.500.493.000;Q8052181
130603;Thành Phố Việt Trì;3801;68;Phú Thọ;240;VN;Vietnam;2.132.958.000;10.539.217.000;Q7897883
130615;Thị xã Phú Thọ;3801;68;Phú Thọ;240;VN;Vietnam;2.141.664.000;10.523.636.000;Q1320204
130623;Việt Trì;3801;68;Phú Thọ;240;VN;Vietnam;2.132.274.000;10.540.198.000;Q36082
130425;Huyện Sơn Hòa;3824;32;Phú Yên;240;VN;Vietnam;1.315.868.000;10.897.281.000;Q3711485
130421;Huyện Sông Hinh;3824;32;Phú Yên;240;VN;Vietnam;1.291.667.000;10.891.667.000;Q7395483
130593;Sông Cầu;3824;32;Phú Yên;240;VN;Vietnam;1.345.560.000;10.922.348.000;Q33418
130618;Tuy Hòa;3824;32;Phú Yên;240;VN;Vietnam;1.309.546.000;10.932.094.000;Q35747
130352;Huyện Lệ Thủy;3809;24;Quảng Bình;240;VN;Vietnam;1.711.239.000;10.670.471.000;Q1320095
130407;Huyện Quảng Ninh;3809;24;Quảng Bình;240;VN;Vietnam;1.727.067.000;10.651.387.000;Q596473
130408;Huyện Quảng Trạch;3809;24;Quảng Bình;240;VN;Vietnam;1.783.447.000;10.636.705.000;Q596473
130477;Huyện Tuyên Hóa;3809;24;Quảng Bình;240;VN;Vietnam;1.791.323.000;10.602.678.000;Q2232329
130566;Kwang Binh;3809;24;Quảng Bình;240;VN;Vietnam;1.746.885.000;10.662.226.000;Q1877
130563;Hội An;3776;27;Quảng Nam;240;VN;Vietnam;1.587.944.000;10.833.500.000;Q36160
130281;Huyện Duy Xuyên;3776;27;Quảng Nam;240;VN;Vietnam;1.578.970.000;10.820.247.000;Q3031197
130538;Huyện Đại Lộc;3776;27;Quảng Nam;240;VN;Vietnam;1.583.721.000;10.797.894.000;Q5295738
130529;Huyện Điện Bàn;3776;27;Quảng Nam;240;VN;Vietnam;1.589.917.000;10.822.470.000;Q5295738
130296;Huyện Hiệp Đức;3776;27;Quảng Nam;240;VN;Vietnam;1.553.857.000;10.809.539.000;Q3710927
130375;Huyện Nam Giang;3776;27;Quảng Nam;240;VN;Vietnam;1.563.201.000;10.760.267.000;Q3711221
130394;Huyện Núi Thành;3776;27;Quảng Nam;240;VN;Vietnam;1.543.345.000;10.857.438.000;Q724739
130403;Huyện Phước Sơn;3776;27;Quảng Nam;240;VN;Vietnam;1.538.806.000;10.785.766.000;Q3091652
130457;Huyện Tiên Phước;3776;27;Quảng Nam;240;VN;Vietnam;1.547.090.000;10.828.257.000;Q3711538
130467;Huyện Trà My;3776;27;Quảng Nam;240;VN;Vietnam;1.525.000.000;10.808.333.000;Q7831038
130596;Tam Kỳ;3776;27;Quảng Nam;240;VN;Vietnam;1.557.364.000;10.847.403.000;Q1365138
130216;Huyện Ba Tơ;3828;29;Quảng Ngãi;240;VN;Vietnam;1.473.973.000;10.869.326.000;Q3710671
130224;Huyện Bình Sơn;3828;29;Quảng Ngãi;240;VN;Vietnam;1.531.899.000;10.876.383.000;Q800057
130552;Huyện Đức Phổ;3828;29;Quảng Ngãi;240;VN;Vietnam;1.478.000.000;10.897.857.000;Q5311201
130348;Huyện Lý Sơn;3828;29;Quảng Ngãi;240;VN;Vietnam;1.540.608.000;10.909.707.000;Q1320095
130359;Huyện Minh Long;3828;29;Quảng Ngãi;240;VN;Vietnam;1.495.375.000;10.867.724.000;Q2226906
130366;Huyện Mộ Đức;3828;29;Quảng Ngãi;240;VN;Vietnam;1.495.515.000;10.888.841.000;Q10796264
130383;Huyện Nghĩa Hành;3828;29;Quảng Ngãi;240;VN;Vietnam;1.498.712.000;10.880.036.000;Q3031601
130424;Huyện Sơn Hà;3828;29;Quảng Ngãi;240;VN;Vietnam;1.498.427.000;10.853.643.000;Q3711485
130426;Huyện Sơn Tây;3828;29;Quảng Ngãi;240;VN;Vietnam;1.496.392.000;10.836.419.000;Q3711485
130427;Huyện Sơn Tịnh;3828;29;Quảng Ngãi;240;VN;Vietnam;1.519.090.000;10.874.295.000;Q3711485
130464;Huyện Trà Bồng;3828;29;Quảng Ngãi;240;VN;Vietnam;1.523.752.000;10.852.633.000;Q1320227
130491;Huyện Tư Nghĩa;3828;29;Quảng Ngãi;240;VN;Vietnam;1.509.499.000;10.877.053.000;Q3711512
130585;Quảng Ngãi;3828;29;Quảng Ngãi;240;VN;Vietnam;1.512.047.000;10.879.232.000;Q33994
130192;Cẩm Phả;3814;13;Quảng Ninh;240;VN;Vietnam;2.101.004.000;10.727.345.000;Q1031051
130193;Cẩm Phả Mines;3814;13;Quảng Ninh;240;VN;Vietnam;2.101.667.000;10.730.000.000;Q31909451
130561;Hạ Long;3814;13;Quảng Ninh;240;VN;Vietnam;2.095.045.000;10.707.336.000;Q36077
130214;Huyện Ba Chẽ;3814;13;Quảng Ninh;240;VN;Vietnam;2.129.503.000;10.719.298.000;Q1124233
130222;Huyện Bình Liêu;3814;13;Quảng Ninh;240;VN;Vietnam;2.154.389.000;10.744.047.000;Q800057
130268;Huyện Cô Tô;3814;13;Quảng Ninh;240;VN;Vietnam;2.105.418.000;10.780.698.000;Q800052
130541;Huyện Đầm Hà;3814;13;Quảng Ninh;240;VN;Vietnam;2.139.689.000;10.756.175.000;Q3593897
130534;Huyện Đông Triều;3814;13;Quảng Ninh;240;VN;Vietnam;2.111.043.000;10.659.662.000;Q5295738
130314;Huyện Hải Hà;3814;13;Quảng Ninh;240;VN;Vietnam;2.149.537.000;10.766.790.000;Q5942590
130299;Huyện Hoành Bồ;3814;13;Quảng Ninh;240;VN;Vietnam;2.111.888.000;10.703.149.000;Q3710927
130458;Huyện Tiên Yên;3814;13;Quảng Ninh;240;VN;Vietnam;2.137.571.000;10.737.468.000;Q3711538
130494;Huyện Vân Đồn;3814;13;Quảng Ninh;240;VN;Vietnam;2.104.921.000;10.750.971.000;Q7484836
130573;Móng Cái;3814;13;Quảng Ninh;240;VN;Vietnam;2.152.471.000;10.796.619.000;Q33204
130602;Thành Phố Uông Bí;3814;13;Quảng Ninh;240;VN;Vietnam;2.103.433.000;10.677.049.000;Q7897883
130631;Ðông Hà;3803;25;Quảng Trị;240;VN;Vietnam;1.681.625.000;10.710.031.000;Q33343
130242;Huyện Cam Lộ;3803;25;Quảng Trị;240;VN;Vietnam;1.679.335.000;10.696.175.000;Q4838559
130527;Huyện Đa Krông;3803;25;Quảng Trị;240;VN;Vietnam;1.655.543.000;10.697.208.000;Q5295738
130288;Huyện Gio Linh;3803;25;Quảng Trị;240;VN;Vietnam;1.691.667.000;10.700.000.000;Q3031261
130316;Huyện Hải Lăng;3803;25;Quảng Trị;240;VN;Vietnam;1.667.574.000;10.723.388.000;Q5942590
130311;Huyện Hướng Hóa;3803;25;Quảng Trị;240;VN;Vietnam;1.670.132.000;10.667.036.000;Q5942590
130462;Huyện Triệu Phong;3803;25;Quảng Trị;240;VN;Vietnam;1.678.132.000;10.716.034.000;Q1320227
130500;Huyện Vĩnh Linh;3803;25;Quảng Trị;240;VN;Vietnam;1.701.600.000;10.693.384.000;Q7932536
130336;Huyện Kế Sách;3819;52;Sóc Trăng;240;VN;Vietnam;981.771.000;10.594.190.000;Q6405298
130343;Huyện Long Phú;3819;52;Sóc Trăng;240;VN;Vietnam;963.715.000;10.608.226.000;Q3711115
130371;Huyện Mỹ Tú;3819;52;Sóc Trăng;240;VN;Vietnam;960.849.000;10.580.681.000;Q10796264
130372;Huyện Mỹ Xuyên;3819;52;Sóc Trăng;240;VN;Vietnam;944.200.000;10.588.546.000;Q10796264
130205;Huyen Nga Nam;3819;52;Sóc Trăng;240;VN;Vietnam;956.127.000;10.559.476.000;Q724711
130450;Huyện Thạnh Trị;3819;52;Sóc Trăng;240;VN;Vietnam;946.939.000;10.571.196.000;Q3711530
130592;Sóc Trăng;3819;52;Sóc Trăng;240;VN;Vietnam;959.995.000;10.597.193.000;Q33418
130238;Huyện Bắc Yên;3812;5;Sơn La;240;VN;Vietnam;2.125.042.000;10.438.501.000;Q4838559
130356;Huyện Mai Sơn;3812;5;Sơn La;240;VN;Vietnam;2.115.884.000;10.404.821.000;Q2226906
130367;Huyện Mộc Châu;3812;5;Sơn La;240;VN;Vietnam;2.183.333.000;10.475.000.000;Q10796264
130363;Huyện Mường La;3812;5;Sơn La;240;VN;Vietnam;2.152.960.000;10.411.113.000;Q10796264
130398;Huyện Phù Yên;3812;5;Sơn La;240;VN;Vietnam;2.121.412.000;10.468.993.000;Q724739
130416;Huyện Quỳnh Nhai;3812;5;Sơn La;240;VN;Vietnam;2.177.224.000;10.364.920.000;Q5370368
130422;Huyện Sông Mã;3812;5;Sơn La;240;VN;Vietnam;2.106.971.000;10.368.727.000;Q7395483
130440;Huyện Thuận Châu;3812;5;Sơn La;240;VN;Vietnam;2.142.319.000;10.364.408.000;Q3031911
130512;Huyện Yên Châu;3812;5;Sơn La;240;VN;Vietnam;2.100.500.000;10.433.264.000;Q8052181
130594;Sơn La;3812;5;Sơn La;240;VN;Vietnam;2.132.560.000;10.391.882.000;Q33415
130239;Huyện Bến Cầu;3826;37;Tây Ninh;240;VN;Vietnam;1.112.889.000;10.614.296.000;Q4838559
130282;Huyện Dương Minh Châu;3826;37;Tây Ninh;240;VN;Vietnam;1.131.833.000;10.625.697.000;Q3031197
130294;Huyện Gò Dầu;3826;37;Tây Ninh;240;VN;Vietnam;1.115.737.000;10.627.307.000;Q3710927
130306;Huyện Hòa Thành;3826;37;Tây Ninh;240;VN;Vietnam;1.126.706.000;10.614.486.000;Q5874252
130480;Huyện Tân Châu;3826;37;Tây Ninh;240;VN;Vietnam;1.158.739.000;10.628.270.000;Q3711512
130472;Huyện Trảng Bàng;3826;37;Tây Ninh;240;VN;Vietnam;1.105.720.000;10.637.539.000;Q286486
130581;Phú Khương;3826;37;Tây Ninh;240;VN;Vietnam;1.128.333.000;10.613.333.000;Q32224301
130621;Tây Ninh;3826;37;Tây Ninh;240;VN;Vietnam;1.131.004.000;10.609.828.000;Q130391
130524;Huyện Ðông Hưng;3775;20;Thái Bình;240;VN;Vietnam;2.054.388.000;10.634.090.000;Q5295738
130309;Huyện Hưng Hà;3775;20;Thái Bình;240;VN;Vietnam;2.059.464.000;10.621.230.000;Q5874252
130331;Huyện Kiến Xương;3775;20;Thái Bình;240;VN;Vietnam;2.040.081.000;10.642.032.000;Q6405298
130417;Huyện Quỳnh Phụ;3775;20;Thái Bình;240;VN;Vietnam;2.065.095.000;10.636.359.000;Q5370368
130442;Huyện Thái Thụy;3775;20;Thái Bình;240;VN;Vietnam;2.053.916.000;10.651.688.000;Q3711534
130459;Huyện Tiền Hải;3775;20;Thái Bình;240;VN;Vietnam;2.038.465.000;10.652.882.000;Q3711538
130504;Huyện Vũ Thư;3775;20;Thái Bình;240;VN;Vietnam;2.043.732.000;10.626.529.000;Q7932536
130605;Thái Bình;3775;20;Thái Bình;240;VN;Vietnam;2.045.000.000;10.634.002.000;Q36497
130606;Thái Nguyên;3807;69;Thái Nguyên;240;VN;Vietnam;2.159.422.000;10.584.817.000;Q26581
130181;Bỉm Sơn;3771;21;Thanh Hóa;240;VN;Vietnam;2.007.806.000;10.586.028.000;Q31887770
130218;Huyện Bá Thước;3771;21;Thanh Hóa;240;VN;Vietnam;2.035.767.000;10.525.301.000;Q3710671
130276;Huyện Cẩm Thủy;3771;21;Thanh Hóa;240;VN;Vietnam;2.019.586.000;10.546.817.000;Q3031197
130533;Huyện Đông Sơn;3771;21;Thanh Hóa;240;VN;Vietnam;1.979.742.000;10.572.465.000;Q5295738
130301;Huyện Hà Trung;3771;21;Thanh Hóa;240;VN;Vietnam;2.002.654.000;10.581.931.000;Q3710927
130317;Huyện Hậu Lộc;3771;21;Thanh Hóa;240;VN;Vietnam;1.993.337.000;10.588.894.000;Q5942590
130341;Huyện Lang Chánh;3771;21;Thanh Hóa;240;VN;Vietnam;2.015.926.000;10.515.071.000;Q6473680
130364;Huyện Mường Lát;3771;21;Thanh Hóa;240;VN;Vietnam;2.052.763.000;10.462.941.000;Q10796264
130380;Huyện Nga Sơn;3771;21;Thanh Hóa;240;VN;Vietnam;2.001.561.000;10.598.975.000;Q3031601
130389;Huyện Ngọc Lặc;3771;21;Thanh Hóa;240;VN;Vietnam;2.006.777.000;10.537.386.000;Q3711242
130391;Huyện Như Thanh;3771;21;Thanh Hóa;240;VN;Vietnam;1.957.798.000;10.555.616.000;Q3711242
130392;Huyện Như Xuân;3771;21;Thanh Hóa;240;VN;Vietnam;1.962.527.000;10.538.856.000;Q3711242
130393;Huyện Nông Cống;3771;21;Thanh Hóa;240;VN;Vietnam;1.961.376.000;10.568.279.000;Q3711242
130404;Huyện Quan Hóa;3771;21;Thanh Hóa;240;VN;Vietnam;2.047.565.000;10.495.335.000;Q3091652
130405;Huyện Quan Sơn;3771;21;Thanh Hóa;240;VN;Vietnam;2.025.758.000;10.483.416.000;Q3091652
130409;Huyện Quảng Xương;3771;21;Thanh Hóa;240;VN;Vietnam;1.970.252.000;10.579.298.000;Q596473
130439;Huyện Thiệu Hóa;3771;21;Thanh Hóa;240;VN;Vietnam;1.989.713.000;10.568.144.000;Q3031911
130451;Huyện Thọ Xuân;3771;21;Thanh Hóa;240;VN;Vietnam;1.993.114.000;10.548.284.000;Q3711530
130445;Huyện Thường Xuân;3771;21;Thanh Hóa;240;VN;Vietnam;1.993.684.000;10.524.109.000;Q3711534
130463;Huyện Triệu Sơn;3771;21;Thanh Hóa;240;VN;Vietnam;1.982.578.000;10.558.293.000;Q1320227
130501;Huyện Vĩnh Lộc;3771;21;Thanh Hóa;240;VN;Vietnam;2.003.482.000;10.565.755.000;Q7932536
130522;Huyện Yên Định;3771;21;Thanh Hóa;240;VN;Vietnam;1.998.666.000;10.561.482.000;Q1924620
130597;Thanh Hóa;3771;21;Thanh Hóa;240;VN;Vietnam;1.980.000.000;10.576.667.000;Q36175
130554;Huế;3798;26;Thừa Thiên-Huế;240;VN;Vietnam;1.646.190.000;10.759.546.000;Q36167
130207;Huyện A Lưới;3798;26;Thừa Thiên-Huế;240;VN;Vietnam;1.623.422.000;10.730.650.000;Q724711
130379;Huyện Nam Đông;3798;26;Thừa Thiên-Huế;240;VN;Vietnam;1.612.396.000;10.769.270.000;Q3031601
130395;Huyện Phong Điền;3798;26;Thừa Thiên-Huế;240;VN;Vietnam;1.648.769.000;10.728.889.000;Q724739
130399;Huyện Phú Lộc;3798;26;Thừa Thiên-Huế;240;VN;Vietnam;1.627.066.000;10.788.545.000;Q724739
130402;Huyện Phú Vang;3798;26;Thừa Thiên-Huế;240;VN;Vietnam;1.647.007.000;10.771.458.000;Q1319796
130410;Huyện Quảng Ðiền;3798;26;Thừa Thiên-Huế;240;VN;Vietnam;1.657.941.000;10.749.370.000;Q596473
130266;Huyện Cái Bè;3781;46;Tiền Giang;240;VN;Vietnam;1.038.824.000;10.594.620.000;Q800052
130241;Huyện Cai Lậy;3781;46;Tiền Giang;240;VN;Vietnam;1.038.943.000;10.606.774.000;Q4838559
130252;Huyện Châu Thành;3781;46;Tiền Giang;240;VN;Vietnam;1.038.600.000;10.627.311.000;Q3710806
130260;Huyện Chợ Gạo;3781;46;Tiền Giang;240;VN;Vietnam;1.037.373.000;10.644.341.000;Q1319826
130293;Huyện Gò Công Đông;3781;46;Tiền Giang;240;VN;Vietnam;1.036.784.000;10.674.592.000;Q3710927
130292;Huyện Gò Công Tây;3781;46;Tiền Giang;240;VN;Vietnam;1.034.527.000;10.659.851.000;Q3710927
130486;Huyện Tân Phước;3781;46;Tiền Giang;240;VN;Vietnam;1.051.489.000;10.623.312.000;Q3711512
130574;Mỹ Tho;3781;46;Tiền Giang;240;VN;Vietnam;1.036.004.000;10.635.996.000;Q33425
130599;Thành Phố Mỹ Tho;3781;46;Tiền Giang;240;VN;Vietnam;1.036.221.000;10.636.824.000;Q36175
130610;Thị Xã Gò Công;3781;46;Tiền Giang;240;VN;Vietnam;1.040.005.000;10.665.847.000;Q3031171
130265;Huyện Càng Long;3805;51;Trà Vinh;240;VN;Vietnam;995.883.000;10.621.395.000;Q800052
130272;Huyện Cầu Kè;3805;51;Trà Vinh;240;VN;Vietnam;986.738.000;10.607.916.000;Q800052
130273;Huyện Cầu Ngang;3805;51;Trà Vinh;240;VN;Vietnam;977.186.000;10.643.654.000;Q800052
130460;Huyện Tiểu Cần;3805;51;Trà Vinh;240;VN;Vietnam;980.350.000;10.620.594.000;Q3711538
130465;Huyện Trà Cú;3805;51;Trà Vinh;240;VN;Vietnam;969.706.000;10.629.423.000;Q7831038
130617;Trà Vinh;3805;51;Trà Vinh;240;VN;Vietnam;994.719.000;10.634.225.000;Q36136
130247;Huyện Chiêm Hóa;3795;7;Tuyên Quang;240;VN;Vietnam;2.217.895.000;10.527.671.000;Q3710815
130305;Huyện Hàm Yên;3795;7;Tuyên Quang;240;VN;Vietnam;2.210.935.000;10.501.630.000;Q3710957
130345;Huyện Lâm Bình;3795;7;Tuyên Quang;240;VN;Vietnam;2.246.411.000;10.521.903.000;Q3711115
130373;Huyện Na Hang;3795;7;Tuyên Quang;240;VN;Vietnam;2.247.522.000;10.548.380.000;Q3711220
130423;Huyện Sơn Dương;3795;7;Tuyên Quang;240;VN;Vietnam;2.163.623.000;10.538.901.000;Q3711485
130519;Huyện Yên Sơn;3795;7;Tuyên Quang;240;VN;Vietnam;2.188.363.000;10.527.656.000;Q3711616
130619;Tuyên Quang;3795;7;Tuyên Quang;240;VN;Vietnam;2.182.356.000;10.521.424.000;Q33389
130342;Huyện Long Hồ;3790;49;Vĩnh Long;240;VN;Vietnam;1.021.640.000;10.598.483.000;Q3711115
130357;Huyện Mang Thít;3790;49;Vĩnh Long;240;VN;Vietnam;1.018.731.000;10.607.472.000;Q2226906
130428;Huyện Tam Bình;3790;49;Vĩnh Long;240;VN;Vietnam;1.008.127.000;10.595.352.000;Q3711485
130468;Huyện Trà Ôn;3790;49;Vĩnh Long;240;VN;Vietnam;997.522.000;10.600.957.000;Q7831038
130505;Huyện Vũng Liêm;3790;49;Vĩnh Long;240;VN;Vietnam;1.008.717.000;10.616.038.000;Q7932536
130624;Vĩnh Long;3790;49;Vĩnh Long;240;VN;Vietnam;1.025.369.000;10.597.220.000;Q34789
130225;Huyện Bình Xuyên;3774;70;Vĩnh Phúc;240;VN;Vietnam;2.130.561.000;10.566.225.000;Q800057
130429;Huyện Tam Dương;3774;70;Vĩnh Phúc;240;VN;Vietnam;2.136.189.000;10.555.690.000;Q3711485
130432;Huyện Tam Đảo;3774;70;Vĩnh Phúc;240;VN;Vietnam;2.145.690.000;10.559.460.000;Q3711485
130514;Huyện Yên Lạc;3774;70;Vĩnh Phúc;240;VN;Vietnam;2.121.845.000;10.557.586.000;Q8052181
130625;Vĩnh Yên;3774;70;Vĩnh Phúc;240;VN;Vietnam;2.130.891.000;10.560.489.000;Q36088
130355;Huyện Lục Yên;3784;6;Yên Bái;240;VN;Vietnam;2.210.235.000;10.472.538.000;Q2226906
130360;Huyện Mù Cang Chải;3784;6;Yên Bái;240;VN;Vietnam;2.178.815.000;10.411.998.000;Q10796264
130470;Huyện Trạm Tấu;3784;6;Yên Bái;240;VN;Vietnam;2.148.553.000;10.442.756.000;Q7831038
130473;Huyện Trấn Yên;3784;6;Yên Bái;240;VN;Vietnam;2.166.586.000;10.479.702.000;Q286486
130496;Huyện Văn Chấn;3784;6;Yên Bái;240;VN;Vietnam;2.155.722.000;10.464.038.000;Q7484836
130497;Huyện Văn Yên;3784;6;Yên Bái;240;VN;Vietnam;2.190.022.000;10.456.669.000;Q7484836
130628;Yên Bái;3784;6;Yên Bái;240;VN;Vietnam;2.172.288.000;10.491.130.000;Q26019